CCSDS_OMM_VERS = 2.0
CREATION_DATE  = 
ORIGINATOR     = 

OBJECT_NAME    = ISS OBJECT XW
OBJECT_ID      = 1998-067XW
CENTER_NAME    = EARTH
REF_FRAME      = TEME
TIME_SYSTEM    = UTC
MEAN_ELEMENT_THEORY = SGP/SGP4

EPOCH          = 2026-02-20T06:50:53.924640
MEAN_MOTION    = 15.64049562
ECCENTRICITY   = .00035132
INCLINATION    = 51.6261
RA_OF_ASC_NODE = 153.9304
ARG_OF_PERICENTER = 0.9555
MEAN_ANOMALY   = 359.1446

EPHEMERIS_TYPE = 0
CLASSIFICATION_TYPE = U
NORAD_CAT_ID   = 66910
ELEMENT_SET_NO = 999
REV_AT_EPOCH   = 1245
BSTAR          = .89568378E-3
MEAN_MOTION_DOT = .86813E-3
MEAN_MOTION_DDOT = 0

CCSDS_OMM_VERS = 2.0
CREATION_DATE  = 
ORIGINATOR     = 

OBJECT_NAME    = ISS OBJECT XX
OBJECT_ID      = 1998-067XX
CENTER_NAME    = EARTH
REF_FRAME      = TEME
TIME_SYSTEM    = UTC
MEAN_ELEMENT_THEORY = SGP/SGP4

EPOCH          = 2026-02-19T12:21:39.663360
MEAN_MOTION    = 15.67669066
ECCENTRICITY   = .00051939
INCLINATION    = 51.6244
RA_OF_ASC_NODE = 157.0316
ARG_OF_PERICENTER = 349.8357
MEAN_ANOMALY   = 10.2534

EPHEMERIS_TYPE = 0
CLASSIFICATION_TYPE = U
NORAD_CAT_ID   = 66911
ELEMENT_SET_NO = 999
REV_AT_EPOCH   = 1233
BSTAR          = .13523447E-2
MEAN_MOTION_DOT = .153219E-2
MEAN_MOTION_DDOT = 0

CCSDS_OMM_VERS = 2.0
CREATION_DATE  = 
ORIGINATOR     = 

OBJECT_NAME    = ISS OBJECT XY
OBJECT_ID      = 1998-067XY
CENTER_NAME    = EARTH
REF_FRAME      = TEME
TIME_SYSTEM    = UTC
MEAN_ELEMENT_THEORY = SGP/SGP4

EPOCH          = 2026-02-20T07:22:54.507648
MEAN_MOTION    = 15.60538174
ECCENTRICITY   = .00015928
INCLINATION    = 51.6292
RA_OF_ASC_NODE = 154.8409
ARG_OF_PERICENTER = 7.5463
MEAN_ANOMALY   = 352.5554

EPHEMERIS_TYPE = 0
CLASSIFICATION_TYPE = U
NORAD_CAT_ID   = 66912
ELEMENT_SET_NO = 999
REV_AT_EPOCH   = 1243
BSTAR          = .72542714E-3
MEAN_MOTION_DOT = .60985E-3
MEAN_MOTION_DDOT = 0

CCSDS_OMM_VERS = 2.0
CREATION_DATE  = 
ORIGINATOR     = 

OBJECT_NAME    = ISS OBJECT XZ
OBJECT_ID      = 1998-067XZ
CENTER_NAME    = EARTH
REF_FRAME      = TEME
TIME_SYSTEM    = UTC
MEAN_ELEMENT_THEORY = SGP/SGP4

EPOCH          = 2026-02-19T13:23:58.452288
MEAN_MOTION    = 15.50320477
ECCENTRICITY   = .0010271
INCLINATION    = 51.6324
RA_OF_ASC_NODE = 161.8342
ARG_OF_PERICENTER = 126.3506
MEAN_ANOMALY   = 233.8432

EPHEMERIS_TYPE = 0
CLASSIFICATION_TYPE = U
NORAD_CAT_ID   = 67683
ELEMENT_SET_NO = 999
REV_AT_EPOCH   = 197
BSTAR          = .60149E-3
MEAN_MOTION_DOT = .34476E-3
MEAN_MOTION_DDOT = 0

CCSDS_OMM_VERS = 2.0
CREATION_DATE  = 
ORIGINATOR     = 

OBJECT_NAME    = GXIBA-1
OBJECT_ID      = 1998-067YA
CENTER_NAME    = EARTH
REF_FRAME      = TEME
TIME_SYSTEM    = UTC
MEAN_ELEMENT_THEORY = SGP/SGP4

EPOCH          = 2026-02-19T13:14:26.491200
MEAN_MOTION    = 15.51472052
ECCENTRICITY   = .001179
INCLINATION    = 51.6315
RA_OF_ASC_NODE = 161.7905
ARG_OF_PERICENTER = 118.7570
MEAN_ANOMALY   = 241.4605

EPHEMERIS_TYPE = 0
CLASSIFICATION_TYPE = U
NORAD_CAT_ID   = 67684
ELEMENT_SET_NO = 999
REV_AT_EPOCH   = 197
BSTAR          = .10517E-2
MEAN_MOTION_DOT = .63458E-3
MEAN_MOTION_DDOT = 0

CCSDS_OMM_VERS = 2.0
CREATION_DATE  = 
ORIGINATOR     = 

OBJECT_NAME    = CORAL
OBJECT_ID      = 1998-067YB
CENTER_NAME    = EARTH
REF_FRAME      = TEME
TIME_SYSTEM    = UTC
MEAN_ELEMENT_THEORY = SGP/SGP4

EPOCH          = 2026-02-19T11:49:22.297152
MEAN_MOTION    = 15.50514255
ECCENTRICITY   = .0012171
INCLINATION    = 51.6320
RA_OF_ASC_NODE = 162.1452
ARG_OF_PERICENTER = 122.1026
MEAN_ANOMALY   = 238.1146

EPHEMERIS_TYPE = 0
CLASSIFICATION_TYPE = U
NORAD_CAT_ID   = 67685
ELEMENT_SET_NO = 999
REV_AT_EPOCH   = 196
BSTAR          = .69034E-3
MEAN_MOTION_DOT = .39975E-3
MEAN_MOTION_DDOT = 0

CCSDS_OMM_VERS = 2.0
CREATION_DATE  = 
ORIGINATOR     = 

OBJECT_NAME    = ISS OBJECT YC
OBJECT_ID      = 1998-067YC
CENTER_NAME    = EARTH
REF_FRAME      = TEME
TIME_SYSTEM    = UTC
MEAN_ELEMENT_THEORY = SGP/SGP4

EPOCH          = 2026-02-19T16:26:00.703968
MEAN_MOTION    = 15.50761739
ECCENTRICITY   = .00077413
INCLINATION    = 51.6322
RA_OF_ASC_NODE = 161.1785
ARG_OF_PERICENTER = 94.6086
MEAN_ANOMALY   = 265.5788

EPHEMERIS_TYPE = 0
CLASSIFICATION_TYPE = U
NORAD_CAT_ID   = 67686
ELEMENT_SET_NO = 999
REV_AT_EPOCH   = 199
BSTAR          = .79147519E-3
MEAN_MOTION_DOT = .46265E-3
MEAN_MOTION_DDOT = 0

CCSDS_OMM_VERS = 2.0
CREATION_DATE  = 
ORIGINATOR     = 

OBJECT_NAME    = LEOPARD
OBJECT_ID      = 1998-067YD
CENTER_NAME    = EARTH
REF_FRAME      = TEME
TIME_SYSTEM    = UTC
MEAN_ELEMENT_THEORY = SGP/SGP4

EPOCH          = 2026-02-20T06:23:52.798848
MEAN_MOTION    = 15.50487975
ECCENTRICITY   = .00078272
INCLINATION    = 51.6320
RA_OF_ASC_NODE = 158.3144
ARG_OF_PERICENTER = 98.8708
MEAN_ANOMALY   = 261.3168

EPHEMERIS_TYPE = 0
CLASSIFICATION_TYPE = U
NORAD_CAT_ID   = 67687
ELEMENT_SET_NO = 999
REV_AT_EPOCH   = 200
BSTAR          = .55087841E-3
MEAN_MOTION_DOT = .31688E-3
MEAN_MOTION_DDOT = 0

CCSDS_OMM_VERS = 2.0
CREATION_DATE  = 
ORIGINATOR     = 

OBJECT_NAME    = ISS OBJECT YE
OBJECT_ID      = 1998-067YE
CENTER_NAME    = EARTH
REF_FRAME      = TEME
TIME_SYSTEM    = UTC
MEAN_ELEMENT_THEORY = SGP/SGP4

EPOCH          = 2026-02-19T13:21:07.371648
MEAN_MOTION    = 15.50645417
ECCENTRICITY   = .0007725
INCLINATION    = 51.6330
RA_OF_ASC_NODE = 161.8218
ARG_OF_PERICENTER = 94.7848
MEAN_ANOMALY   = 265.4023

EPHEMERIS_TYPE = 0
CLASSIFICATION_TYPE = U
NORAD_CAT_ID   = 67688
ELEMENT_SET_NO = 999
REV_AT_EPOCH   = 189
BSTAR          = .74278E-3
MEAN_MOTION_DOT = .43193E-3
MEAN_MOTION_DDOT = 0

CCSDS_OMM_VERS = 2.0
CREATION_DATE  = 
ORIGINATOR     = 

OBJECT_NAME    = CREW DRAGON 12
OBJECT_ID      = 2026-031A
CENTER_NAME    = EARTH
REF_FRAME      = TEME
TIME_SYSTEM    = UTC
MEAN_ELEMENT_THEORY = SGP/SGP4

EPOCH          = 2026-02-20T05:11:11.637888
MEAN_MOTION    = 15.48153499
ECCENTRICITY   = .00085755
INCLINATION    = 51.6324
RA_OF_ASC_NODE = 158.7245
ARG_OF_PERICENTER = 115.0388
MEAN_ANOMALY   = 245.1491

EPHEMERIS_TYPE = 0
CLASSIFICATION_TYPE = U
NORAD_CAT_ID   = 67796
ELEMENT_SET_NO = 999
REV_AT_EPOCH   = 55359
BSTAR          = .18283655E-3
MEAN_MOTION_DOT = .9352E-4
MEAN_MOTION_DDOT = 0

